     3.03           N: GNSS NAV DATA    M: Mixed            RINEX VERSION / TYPE
Emlid RGL 1.2.3                         20231109 132015 UTC PGM / RUN BY / DATE 
format: u-blox                                              COMMENT             
GPSA   2.5146E-08 -7.4506E-09 -1.1921E-07  1.7881E-07       IONOSPHERIC CORR    
GPSB   1.3312E+05 -8.1920E+04  6.5536E+04 -3.9322E+05       IONOSPHERIC CORR    
GAL    0.0000E+00  0.0000E+00  0.0000E+00  0.0000E+00       IONOSPHERIC CORR    
QZSA   0.0000E+00  0.0000E+00  0.0000E+00  0.0000E+00       IONOSPHERIC CORR    
QZSB   0.0000E+00  0.0000E+00  0.0000E+00  0.0000E+00       IONOSPHERIC CORR    
GPUT  9.3132257462E-10-1.776356839E-15 503808 2287          TIME SYSTEM CORR    
GAUT  0.0000000000E+00 0.000000000E+00      0    0          TIME SYSTEM CORR    
QZUT  0.0000000000E+00 0.000000000E+00      0    0          TIME SYSTEM CORR    
BDUT  0.0000000000E+00 0.000000000E+00      0    0          TIME SYSTEM CORR    
    18                                                      LEAP SECONDS        
                                                            END OF HEADER       
G24 2023 11  9 14  0  0 -.367132015526E-03 -.909494701773E-11  .000000000000E+00
      .106000000000E+03 -.356250000000E+01  .514271421469E-08 -.204810756196E+00
     -.130385160446E-06  .148252125364E-01  .111274421215E-04  .515363419914E+04
      .396000000000E+06 -.260770320892E-07  .241899347594E+01  .188127160072E-06
      .934016495296E+00  .149718750000E+03  .940171023840E+00 -.852035490698E-08
     -.302155443130E-09  .100000000000E+01  .228700000000E+04  .000000000000E+00
      .200000000000E+01  .000000000000E+00  .232830643654E-08  .106000000000E+03
      .391926000000E+06  .400000000000E+01
R21 2023 11  9 12 45  0 -.520534813404E-04 -.272848410532E-11  .391920000000E+06
      .193032275391E+04  .194095611572E+00  .279396772385E-08  .000000000000E+00
     -.232617929688E+05 -.140777969360E+01 -.931322574615E-09  .400000000000E+01
      .102549819336E+05 -.323477458954E+01 -.931322574615E-09  .000000000000E+00
R20 2023 11  9 12 45  0 -.103217549622E-03  .000000000000E+00  .391920000000E+06
      .111169370117E+05 -.604955673218E+00  .372529029846E-08  .000000000000E+00
     -.211801123047E+05  .108676147461E+01 -.279396772385E-08  .200000000000E+01
     -.889227783203E+04 -.333615112305E+01  .000000000000E+00  .000000000000E+00
R15 2023 11  9 12 45  0  .848704949021E-04  .000000000000E+00  .391920000000E+06
      .171765507812E+05 -.244305038452E+01  .000000000000E+00  .000000000000E+00
      .453475634766E+04  .557630538940E+00 -.931322574615E-09  .000000000000E+00
      .183240551758E+05  .215371894836E+01 -.186264514923E-08  .000000000000E+00
E 7 2023 11  9 12 40  0 -.868684728630E-04 -.201794136956E-11  .000000000000E+00
      .120000000000E+02 -.774375000000E+02  .368193908183E-08 -.205264325169E+00
     -.352784991264E-05  .133935944177E-03  .456161797047E-05  .544060463333E+04
      .391200000000E+06  .447034835815E-07  .145785574781E+01 -.242143869400E-07
      .959228249924E+00  .239312500000E+03  .701617019085E+00 -.595096216718E-08
     -.355371945525E-09  .513000000000E+03  .228700000000E+04  .000000000000E+00
      .312000000000E+01  .000000000000E+00  .558793544769E-08  .605359673500E-08
      .391939000000E+06  .000000000000E+00
E 8 2023 11  9 12 40  0 -.174336368218E-03 -.589750470681E-11  .000000000000E+00
      .120000000000E+02 -.746250000000E+02  .360193574937E-08  .258151221697E+00
     -.337325036526E-05  .257446081378E-03  .490993261337E-05  .544060747910E+04
      .391200000000E+06  .651925802231E-07  .145684929528E+01  .100582838058E-06
      .965075821682E+00  .235312500000E+03  .103274321447E+01 -.591846081336E-08
     -.303226916332E-09  .513000000000E+03  .228700000000E+04  .000000000000E+00
      .312000000000E+01  .000000000000E+00 -.302679836750E-08 -.372529029846E-08
      .391939000000E+06  .000000000000E+00
E13 2023 11  9 12  0  0 -.196003820747E-04  .142108547152E-13  .000000000000E+00
      .800000000000E+01 -.504062500000E+02  .226259424613E-08 -.226396547381E+01
     -.225193798542E-05  .233886297792E-03  .130496919155E-04  .544060878372E+04
      .388800000000E+06  .130385160446E-07 -.636299988517E+00  .186264514923E-07
      .100009471286E+01  .750312500000E+02 -.171629035429E+01 -.516557230968E-08
      .160720980388E-10  .513000000000E+03  .228700000000E+04  .000000000000E+00
      .312000000000E+01  .000000000000E+00  .442378222942E-08  .465661287308E-08
      .391939000000E+06  .000000000000E+00
E 3 2023 11  9 12 30  0 -.722935074009E-04 -.275690581475E-11  .000000000000E+00
      .110000000000E+02 -.661250000000E+02  .366943856113E-08  .849106245941E+00
     -.306405127048E-05  .335214193910E-03  .477395951748E-05  .544060202980E+04
      .390600000000E+06 -.745058059692E-07  .145780203970E+01  .596046447754E-07
      .959186294896E+00  .235562500000E+03  .113099109130E+01 -.588631661729E-08
     -.254653464482E-09  .513000000000E+03  .228700000000E+04  .000000000000E+00
      .312000000000E+01  .000000000000E+00  .302679836750E-08  .349245965481E-08
      .391939000000E+06  .000000000000E+00
C24 2023 11  9 12  0  0  .578974839300E-03  .377742281898E-10  .000000000000E+00
      .100000000000E+01  .788437500000E+02  .395945064130E-08 -.138742791052E+01
      .378768891096E-05  .750271137804E-03  .114263966680E-04  .528264221764E+04
      .388800000000E+06  .828877091408E-07  .297909014802E+01 -.144354999065E-07
      .945792696176E+00  .123765625000E+03  .660696634450E+00 -.682314135408E-08
      .100004165575E-09  .000000000000E+00  .931000000000E+03  .100000000000E+01
      .200000000000E+01  .000000000000E+00  .380000000000E-08  .380000000000E-08
      .391920000000E+06  .100000000000E+01
E26 2023 11  9 12 40  0  .275875208899E-03  .111270992420E-10  .000000000000E+00
      .120000000000E+02 -.670937500000E+02  .226652298121E-08 -.230010976154E+01
     -.311993062496E-05  .317242927849E-03  .125132501125E-04  .544060978508E+04
      .391200000000E+06  .279396772385E-07 -.635412752109E+00 -.372529029846E-08
      .993413078842E+00  .821562500000E+02 -.219017603803E+01 -.520843123778E-08
     -.214294640518E-11  .513000000000E+03  .228700000000E+04  .000000000000E+00
      .312000000000E+01  .000000000000E+00 -.488944351673E-08 -.558793544769E-08
      .391969000000E+06  .000000000000E+00
E15 2023 11  9 12  0  0 -.680167577229E-04 -.279953837889E-11  .000000000000E+00
      .800000000000E+01 -.372812500000E+02  .224616499036E-08 -.145826770261E+01
     -.169873237610E-05  .296241138130E-03  .127758830786E-04  .544061102676E+04
      .388800000000E+06 -.186264514923E-08 -.636363123673E+00  .167638063431E-07
      .100005173964E+01  .859062500000E+02 -.172630498383E+01 -.516378652101E-08
      .314298806093E-10  .513000000000E+03  .228700000000E+04  .000000000000E+00
      .312000000000E+01  .000000000000E+00  .605359673500E-08  .675208866596E-08
      .391969000000E+06  .000000000000E+00
E33 2023 11  9 12 30  0  .199966598302E-05  .824229573482E-12  .000000000000E+00
      .110000000000E+02 -.663125000000E+02  .223509310060E-08 -.282909693645E+01
     -.328384339809E-05  .326801906340E-03  .121183693409E-04  .544061119843E+04
      .390600000000E+06 -.111758708954E-07 -.636350182699E+00 -.186264514923E-08
      .100011298178E+01  .988437500000E+02 -.246913990120E+01 -.514092842602E-08
     -.714315468392E-12  .513000000000E+03  .228700000000E+04  .000000000000E+00
      .312000000000E+01  .000000000000E+00 -.395812094212E-08 -.442378222942E-08
      .391999000000E+06  .000000000000E+00
G29 2023 11  9 14  0  0 -.610226765275E-03  .000000000000E+00  .000000000000E+00
      .450000000000E+02 -.482812500000E+02  .433268047353E-08  .152408144653E+01
     -.242516398430E-05  .252673670184E-02  .480189919472E-05  .515368538857E+04
      .396000000000E+06  .558793544769E-07 -.160179814880E+01  .108033418655E-06
      .973945163377E+00  .292375000000E+03  .257416114725E+01 -.812891003030E-08
     -.313584490624E-09  .100000000000E+01  .228700000000E+04  .000000000000E+00
      .200000000000E+01  .000000000000E+00 -.977888703346E-08  .450000000000E+02
      .392016000000E+06  .400000000000E+01
C34 2023 11  9 12  0  0  .299550825730E-03  .826538837373E-11  .000000000000E+00
      .100000000000E+01 -.887500000000E+02  .386873257681E-08  .279055067915E+01
     -.432319939137E-05  .393970985897E-03  .758608803153E-05  .528262178040E+04
      .388800000000E+06  .381842255592E-07 -.123709723740E+01 -.279396772385E-08
      .957268156210E+00  .205421875000E+03  .577792037003E+00 -.696136139722E-08
     -.333228166005E-09  .000000000000E+00  .931000000000E+03  .100000000000E+01
      .200000000000E+01  .000000000000E+00 -.610000000000E-08 -.610000000000E-08
      .392040000000E+06  .100000000000E+01
G27 2023 11  9 14  0  0 -.675185583532E-04 -.534328137292E-11  .000000000000E+00
      .210000000000E+02 -.365312500000E+02  .463233581252E-08  .170215692425E+01
     -.200420618057E-05  .117961561773E-01  .405311584473E-05  .515366767120E+04
      .396000000000E+06 -.193715095520E-06 -.168320560173E+01  .000000000000E+00
      .964893893189E+00  .306437500000E+03  .741567222783E+00 -.840427864337E-08
     -.320370487574E-09  .100000000000E+01  .228700000000E+04  .000000000000E+00
      .200000000000E+01  .000000000000E+00  .139698386192E-08  .210000000000E+02
      .392076000000E+06  .400000000000E+01
